O3B FM5                 
1 39188U 13031A   24153.88580558 -.00000015  00000+0  00000+0 0  9994
2 39188   0.0600  18.1489 0002696  48.4544 293.4258  5.00114958199757
O3B FM4                 
1 39189U 13031B   24153.34161021 -.00000015  00000+0  00000+0 0  9996
2 39189   0.0541 350.4849 0002704  76.1460 293.3983  5.00114910199740
O3B FM2                 
1 39190U 13031C   24154.63293253 -.00000016  00000+0  00000+0 0  9995
2 39190   0.0553 345.2103 0002611  83.6988 291.1195  5.00115466199866
O3B PFM                 
1 39191U 13031D   24154.65839876 -.00000016  00000+0  00000+0 0  9995
2 39191   0.0552  10.3647 0002616  60.4564 289.2078  5.00116179199429
O3B FM3                 
1 40079U 14038A   24154.71286538 -.00000016  00000+0  00000+0 0  9998
2 40079   0.0548 358.4349 0003922 109.1211 252.4875  5.00114531175800
O3B FM7                 
1 40080U 14038B   24154.45956953 -.00000016  00000+0  00000+0 0  9996
2 40080   0.0579 355.2122 0002420  33.7154 331.0865  5.00116079180628
O3B FM6                 
1 40081U 14038C   24154.28671417 -.00000016  00000+0  00000+0 0  9997
2 40081   0.0540 357.7277 0002634  75.3586 286.9432  5.00115304180564
O3B FM8                 
1 40082U 14038D   24154.54010855 -.00000016  00000+0  00000+0 0  9990
2 40082   0.0548 357.0931 0002806  74.3561 288.5820  5.00115363180694
O3B FM10                
1 40348U 14083A   24154.56656333 -.00000016  00000+0  00000+0 0  9994
2 40348   0.0511   7.0143 0002647  64.9931 288.0221  5.00115483172644
O3B FM11                
1 40349U 14083B   24154.57977436 -.00000016  00000+0  00000+0 0  9996
2 40349   0.0558   7.0211 0002079  53.7786 299.2217  5.00115551172662
O3B FM12                
1 40350U 14083C   24154.20729375 -.00000016  00000+0  00000+0 0  9995
2 40350   0.0552   6.2433 0002482  66.7501 287.0344  5.00115588172646
O3B FM9                 
1 40351U 14083D   24154.63376833 -.00000016  00000+0  00000+0 0  9990
2 40351   0.0569   7.4019 0002612  63.8387 288.7884  5.00115903172821
LEO 1 (LEO VANTAGE 1)   
1 43113U 18004C   24154.86477975  .00006384  00000+0  47952-3 0  9994
2 43113  99.2984 326.1456 0377528 190.7525 168.5436 14.60282561328532
O3B FM15                
1 43231U 18024A   24154.30024587 -.00000016  00000+0  00000+0 0  9999
2 43231   0.0476   7.5791 0002658  67.1618 285.2892  5.00114856113765
O3B FM16                
1 43232U 18024B   24154.55290381 -.00000016  00000+0  00000+0 0  9994
2 43232   0.0438   9.5490 0002621  64.0314 286.4491  5.00115259113699
O3B FM14                
1 43233U 18024C   24154.59320799 -.00000016  00000+0  00000+0 0  9996
2 43233   0.0425   8.4960 0002868  62.7467 288.7891  5.00114830113708
O3B FM13                
1 43234U 18024D   24153.24742476 -.00000015  00000+0  00000+0 0  9997
2 43234   0.0624  12.1505 0002339  74.6172 273.2598  5.00115354113755
O3B FM20                
1 44112U 19020A   24154.41953347 -.00000016  00000+0  00000+0 0  9992
2 44112   0.0509   6.3135 0002306  68.8924 284.8203  5.00115891 94318
O3B FM19                
1 44113U 19020B   24153.44731257 -.00000015  00000+0  00000+0 0  9998
2 44113   0.0776   9.2197 0002933  42.5892 308.2183  5.00115311 94139
O3B FM17                
1 44114U 19020C   24151.32828397 -.00000014  00000+0  00000+0 0  9995
2 44114   0.0388 346.0777 0002643  88.3413 285.6111  5.00116213 94119
O3B FM18                
1 44115U 19020D   24152.27417527 -.00000014  00000+0  00000+0 0  9990
2 44115   0.0511   6.8169 0002794  65.0857 288.1286  5.00116173 94289
SALSAT                  
1 46495U 20068K   24154.65872627  .00006087  00000+0  34853-3 0  9999
2 46495  97.8147 113.5878 0014100  12.0021 348.1542 15.12936243202110
O3B MPOWER F1           
1 54755U 22174A   24154.23788796 -.00000016  00000+0  00000+0 0  9994
2 54755   0.0628 357.1106 0006839  77.0359  84.4379  5.00114295 28095
O3B MPOWER F2           
1 54756U 22174B   24154.48299393 -.00000016  00000+0  00000+0 0  9992
2 54756   0.0615 353.8912 0005432  82.1595 284.0104  5.00114596 28185
O3B MPOWER F4           
1 56367U 23059A   24152.38445366 -.00000014  00000+0  00000+0 0  9993
2 56367   0.0605  13.5014 0007346  50.2429 296.3320  5.00114123 21247
O3B MPOWER F3           
1 56368U 23059B   24154.45041809 -.00000016  00000+0  00000+0 0  9990
2 56368   0.0602  14.7693 0005582  63.4158 281.8782  5.00115606 17474
